     3.05           N: GNSS NAV DATA    M: Mixed            RINEX VERSION / TYPE
                                        20220902 101302 UTC PGM / RUN BY / DATE 
                                                            END OF HEADER       
                                                                                                                                                                                                                                                                                                                                                                                                                                                                                                                                                                                                                                                                                                                                                                                                            
C41 2022  9  2 10  0  0 -.412705121562E-04 -.347126771771E-10  .000000000000E+00
      .000000000000E+00 -.180156250000E+02  .396873674239E-08 -.222760825251E+01
     -.100629404187E-05  .131148006767E-02  .667665153742E-05  .528261497498E+04
      .468000000000E+06  .870786607265E-07  .231790656959E+01  .214204192162E-07
      .967884141631E+00  .233906250000E+03 -.155322545327E+01 -.683171313970E-08
      .115361948145E-09  .000000000000E+00  .869000000000E+03  .000000000000E+00
      .200000000000E+01  .000000000000E+00 -.243000000000E-07 -.243000000000E-07
      .468990800000E+06  .100000000000E+01  .000000000000E+00  .000000000000E+00
C 8 2022  9  2 10  0  0  .459908042103E-03  .110489395411E-10  .000000000000E+00
      .000000000000E+00 -.357859375000E+03  .569309428309E-09  .202860639583E+00
     -.118566676974E-04  .242331833579E-02  .235880725086E-04  .649312252426E+04
      .468000000000E+06 -.114087015390E-06  .134902916510E+01  .246800482273E-07
      .105369119342E+01 -.464500000000E+03  .303765802505E+01 -.160506685748E-08
      .506092509356E-09  .000000000000E+00  .869000000000E+03  .000000000000E+00
      .200000000000E+01  .000000000000E+00  .244000000000E-07  .122000000000E-07
      .469203800000E+06  .000000000000E+00  .000000000000E+00  .000000000000E+00
E34 2022  9  2 10 10  0 -.246491981670E-05 -.189004367712E-11  .000000000000E+00
      .130000000000E+02 -.119250000000E+03  .255296348403E-08 -.382148908573E+00
     -.547245144844E-05  .448967679404E-03  .793486833572E-05  .544060859108E+04
      .468600000000E+06  .111758708954E-07  .748141439117E+00  .931322574615E-08
      .998270534478E+00  .187750000000E+03  .236769540207E+01 -.537700968832E-08
     -.292869342041E-10  .513000000000E+03  .222500000000E+04  .000000000000E+00
      .360000000000E+01  .000000000000E+00  .442378222942E-08  .535510480404E-08
      .469288800000E+06  .000000000000E+00  .000000000000E+00  .000000000000E+00
E36 2022  9  2 10 10  0 -.425558420829E-03 -.551381162950E-11  .000000000000E+00
      .130000000000E+02 -.122375000000E+03  .252724812717E-08  .714065714629E+00
     -.567734241486E-05  .105400918983E-03  .870414078236E-05  .544060753250E+04
      .468600000000E+06 -.931322574615E-08  .749916625838E+00  .167638063431E-07
      .998406496621E+00  .170750000000E+03  .205815509545E+01 -.535665169747E-08
     -.885751180806E-10  .513000000000E+03  .222500000000E+04  .000000000000E+00
      .312000000000E+01  .000000000000E+00  .651925802231E-08  .721774995327E-08
      .469289800000E+06  .000000000000E+00  .000000000000E+00  .000000000000E+00
E 3 2022  9  2 10 10  0 -.595718622208E-03 -.396482846554E-11  .000000000000E+00
      .130000000000E+02 -.364375000000E+02  .352907557159E-08 -.714182889978E+00
     -.176578760147E-05  .282810186036E-03  .617839396000E-05  .544061918831E+04
      .468600000000E+06  .279396772385E-07  .285072981268E+01  .298023223877E-07
      .957374542538E+00  .203562500000E+03  .570742657563E+00 -.573595321119E-08
     -.119647840956E-09  .513000000000E+03  .222500000000E+04  .000000000000E+00
      .312000000000E+01  .000000000000E+00  .395812094212E-08  .442378222942E-08
      .469291800000E+06  .000000000000E+00  .000000000000E+00  .000000000000E+00
E 5 2022  9  2 10 10  0 -.147814513184E-03  .352429196937E-11  .000000000000E+00
      .130000000000E+02 -.386562500000E+02  .345692970928E-08  .239698710356E+00
     -.169500708580E-05  .526363728568E-04  .630132853985E-05  .544061749077E+04
      .468600000000E+06 -.409781932831E-07  .285072572383E+01  .577419996262E-07
      .957388443186E+00  .202375000000E+03  .410530081071E+00 -.567380776544E-08
     -.121790787361E-09  .513000000000E+03  .222500000000E+04  .000000000000E+00
      .312000000000E+01  .000000000000E+00  .442378222942E-08  .488944351673E-08
      .469293800000E+06  .000000000000E+00  .000000000000E+00  .000000000000E+00
E 9 2022  9  2 10 10  0 -.644296989776E-03 -.133013600134E-10  .000000000000E+00
      .130000000000E+02 -.410000000000E+02  .336049712105E-08  .134660890026E+01
     -.179745256901E-05  .276159495115E-03  .672973692417E-05  .544060515976E+04
      .468600000000E+06 -.353902578354E-07  .284794134161E+01 -.689178705215E-07
      .963339569063E+00  .202125000000E+03  .844060356216E-01 -.561166231969E-08
     -.201436962087E-09  .513000000000E+03  .222500000000E+04  .000000000000E+00
      .312000000000E+01  .000000000000E+00  .209547579288E-08  .232830643654E-08
      .469294800000E+06  .000000000000E+00  .000000000000E+00  .000000000000E+00
R 9 2022  9  2 10 15  0  .745216384530E-04  .272848410532E-11  .469440000000E+06
     -.142374121094E+04 -.157913208008E+00  .000000000000E+00  .000000000000E+00
      .241102094727E+05  .113138675690E+01  .372529029846E-08 -.200000000000E+01
     -.830420556641E+04  .329561233521E+01 -.931322574615E-09  .000000000000E+00
